2026-023G               
1 67680U 26023G   26052.48781102  .00013680  00000+0  58450-3 0  9998
2 67680  96.6278 129.8029 0022930 173.7306 186.4224 15.22714658  2371
2026-023H               
1 67681U 26023H   26051.96190834  .00000012  00000+0  30010-5 0  9996
2 67681  96.6429 129.3474 0022907 175.0206 185.1265 15.22685851  2291
2026-023J               
1 67682U 26023J   26052.35571804  .00013109  00000+0  55910-3 0  9996
2 67682  96.6377 129.7065 0023133 170.4055 189.7630 15.22778204  2355
ISS OBJECT XZ           
1 67683U 98067XZ  26052.49203359  .00039280  00000+0  68048-3 0  9990
2 67683  51.6314 152.2476 0010074 132.3559 227.8285 15.50458827  2279
GXIBA-1                 
1 67684U 98067YA  26052.48391139  .00073407  00000+0  12031-2 0  9993
2 67684  51.6313 152.1932 0011704 125.0335 235.1755 15.51722963  2277
CORAL                   
1 67685U 98067YB  26052.49053635  .00043161  00000+0  74046-3 0  9990
2 67685  51.6309 152.2369 0012029 128.6764 231.5303 15.50667475  2278
ISS OBJECT YC           
1 67686U 98067YC  26052.48901007  .00051525  00000+0  87491-3 0  9996
2 67686  51.6316 152.2270 0007717 100.0521 260.1340 15.50924553  2273
LEOPARD                 
1 67687U 98067YD  26052.49115776  .00041163  00000+0  71002-3 0  9996
2 67687  51.6314 152.2418 0007804 102.7500 257.4362 15.50581652  2192
ISS OBJECT YE           
1 67688U 98067YE  26052.48963720  .00047348  00000+0  80842-3 0  9999
2 67688  51.6323 152.2323 0007700 100.5477 259.6380 15.50807123  2190
PRC TEST SPACECRAFT 4   
1 67689U 26024A   26052.48269813 -.00000024  00000+0  21626-4 0  9993
2 67689  49.9852  98.8518 0006186 297.7781  62.2533 14.91675532  2169
CZ-2F R/B               
1 67690U 26024B   26052.48296019  .00019318  00000+0  35914-3 0  9992
2 67690  49.9861  95.8412 0176296 207.6933 151.4552 15.33623772  2203
CZ-2F DEB               
1 67691U 26024C   26052.38370343  .00760082  10424-4  85092-3 0  9994
2 67691  49.9058  92.7808 0223657 216.6417 141.9085 15.75043161  2229
